Skip Page Navigation
NASA Logo - Jet Propulsion Laboratory				+ View the NASA Portal
+ Center for Near-Earth Object Studies			
JPL Home	Earth	Solar System	Stars & Galaxies	Technology

JPL Solar System Dynamics
BODIES		ORBITS		EPHEMERIDES		TOOLS		PHYSICAL DATA		DISCOVERY		FAQ		SITE MAP

IMPORTANT: The SSD Announcement email list is now available. Major changes are coming in the near future, including possible hostname and/or URL changes. To be notified of such changes, subscribe to this email list.

Please visit this page for more details.


Don't show this message again
HORIZONS Web-Interface
This tool provides a web-based limited interface to JPL's HORIZONS system which can be used to generate ephemerides for solar-system bodies. Full access to HORIZONS features is available via the primary telnet interface. HORIZONS system news shows recent changes and improvements. A web-interface tutorial is available to assist new users.
Current Settings
Ephemeris Type [change] : 	ELEMENTS
Target Body [change] : 	Io (JI) [501]
Center [change] : 	Jupiter System Barycenter [500@5]
Time Span [change] : 	Start=JD 2458850.0, Stop=JD 2464329.0, Intervals=500
Table Settings [change] : 	CSV format=YES
Display/Output [change] : 	default (formatted HTML)
Object Data Page
 Revised: Jun 17, 2016             Io  / (Jupiter)                          501

 SATELLITE PHYSICAL PROPERTIES:
  Radius (km)             = 1821.3 +- 0.2   Density (g cm^-3)   =  3.530 +-.006
  Mass (10^20 kg )        =  893.3 +- 1.5   Geometric Albedo    =  0.6  

 SATELLITE ORBITAL DATA:
  Semi-major axis, a (km) = 421.769 (10^3)  Orbital period      = 1.769138 d
  Eccentricity, e         = 0.0041          Rotational period   = Synchronous
  Inclination, i  (deg)   = 0.036
Results
*******************************************************************************
Ephemeris / WWW_USER Fri May 15 20:07:01 2020 Pasadena, USA      / Horizons    
*******************************************************************************
Target body name: Io (501)                        {source: jup310}
Center body name: Jupiter Barycenter (5)          {source: DE431mx}
Center-site name: BODY CENTER
*******************************************************************************
Start time      : A.D. 2020-Jan-01 12:00:00.0000 TDB
Stop  time      : A.D. 2035-Jan-01 12:00:00.0000 TDB
Step-size       : 500 steps
*******************************************************************************
Center geodetic : 0.00000000,0.00000000,0.0000000 {E-lon(deg),Lat(deg),Alt(km)}
Center cylindric: 0.00000000,0.00000000,0.0000000 {E-lon(deg),Dxy(km),Dz(km)}
Center radii    : (undefined)                                                  
Keplerian GM    : 2.8249471898880228E-07 au^3/d^2
Output units    : AU-D, deg, Julian Day Number (Tp)                            
Output type     : GEOMETRIC osculating elements
Output format   : 10
Reference frame : ICRF/J2000.0                                                 
Coordinate systm: Ecliptic and Mean Equinox of Reference Epoch                 
*******************************************************************************
            JDTDB,            Calendar Date (TDB),                     EC,                     QR,                     IN,                     OM,                      W,                     Tp,                      N,                     MA,                     TA,                      A,                     AD,                     PR,
**************************************************************************************************************************************************************************************************************************************************************************************************************************************************
$$SOE
2461414.172000000, A.D. 2027-Jan-08 16:07:40.8000,  4.161112897265174E-03,  2.808317716561508E-03,  2.234336337842240E+00,  3.383122255200864E+02,  3.257548143631184E+02,  2.461414655660336E+06,  2.033490095481110E+02,  2.616481497515610E+02,  2.611767397112152E+02,  2.820052272443333E-03,  2.831786828325159E-03,  1.770355315720515E+00,
2461425.130000000, A.D. 2027-Jan-19 15:07:12.0000,  4.710219667714731E-03,  2.808091359968943E-03,  2.234931826186481E+00,  3.382952563955880E+02,  3.190875372345065E+02,  2.461425237487103E+06,  2.032054101097703E+02,  3.381580392300368E+02,  3.379561231136701E+02,  2.821380682750947E-03,  2.834670005532950E-03,  1.771606375074021E+00,
2461436.088000000, A.D. 2027-Jan-30 14:06:43.2000,  4.134137396383139E-03,  2.806274579900740E-03,  2.235749205436645E+00,  3.382794865589734E+02,  3.138850643625550E+02,  2.461435826654636E+06,  2.035793970510779E+02,  5.320453168972631E+01,  5.358506531338059E+01,  2.817924265988941E-03,  2.829573952077141E-03,  1.768351833312859E+00,
2461447.046000000, A.D. 2027-Feb-10 13:06:14.4000,  3.493561399773916E-03,  2.813071602354265E-03,  2.236360316731425E+00,  3.382603748121452E+02,  3.174351221026905E+02,  2.461446457367131E+06,  2.030377457090259E+02,  1.195146907005809E+02,  1.198623218615135E+02,  2.822933694543644E-03,  2.832795786733022E-03,  1.773069331236160E+00,
2461458.004000000, A.D. 2027-Feb-21 12:05:45.6000,  3.885364607191072E-03,  2.808023523516776E-03,  2.237001483003824E+00,  3.382422466034347E+02,  3.019968115763107E+02,  2.461458766867204E+06,  2.034654475959661E+02,  2.047828829635679E+02,  2.045970708650619E+02,  2.818976274160912E-03,  2.829929024805049E-03,  1.769342186860514E+00,
2461468.962000000, A.D. 2027-Mar-04 11:05:16.8000,  4.611221319785811E-03,  2.807628024813761E-03,  2.237533073187826E+00,  3.382217772850430E+02,  2.861780006068737E+02,  2.461469303947988E+06,  2.032860403976808E+02,  2.904867476679390E+02,  2.899907663939832E+02,  2.820634595194446E-03,  2.833641165575132E-03,  1.770903694595781E+00,
2461479.920000000, A.D. 2027-Mar-15 10:04:48.0000,  4.980003502119514E-03,  2.807934061840644E-03,  2.238048794679677E+00,  3.382035581186109E+02,  2.810080733704865E+02,  2.461479893031326E+06,  2.031398626353101E+02,  5.478412781629094E+00,  5.533234318221850E+00,  2.821987569821292E-03,  2.836041077801939E-03,  1.772178022224497E+00,
2461490.878000000, A.D. 2027-Mar-26 09:04:19.2000,  4.114091693633980E-03,  2.808444895451416E-03,  2.238484487313255E+00,  3.381813432003316E+02,  2.801653319521478E+02,  2.461490503321150E+06,  2.033495985765133E+02,  7.619079369574531E+01,  7.664916507503065E+01,  2.820046826676706E-03,  2.831648757901996E-03,  1.770350187657463E+00,
2461501.836000000, A.D. 2027-Apr-06 08:03:50.4000,  3.794800990677722E-03,  2.809543640349076E-03,  2.238850056066229E+00,  3.381664619776598E+02,  2.699693121312356E+02,  2.461501067661599E+06,  2.033280667980593E+02,  1.562247616491872E+02,  1.563993141045339E+02,  2.820245912331145E-03,  2.830948184313214E-03,  1.770537661962544E+00,
2461512.794000000, A.D. 2027-Apr-17 07:03:21.6000,  4.035519939336253E-03,  2.809557416768602E-03,  2.239313078619879E+00,  3.381472255264898E+02,  2.502983161396789E+02,  2.461513356039634E+06,  2.032528792485921E+02,  2.457638261875248E+02,  2.453430235257190E+02,  2.820941381963214E-03,  2.832325347157826E-03,  1.771192621383216E+00,
2461523.752000000, A.D. 2027-Apr-28 06:02:52.8000,  4.265246756699584E-03,  2.808494268571331E-03,  2.239641193512375E+00,  3.381307833858742E+02,  2.440427571534470E+02,  2.461523939687658E+06,  2.032979428215027E+02,  3.218434852939980E+02,  3.215402531911396E+02,  2.820524501553775E-03,  2.832554734536218E-03,  1.770800014027112E+00,
2461534.710000000, A.D. 2027-May-09 05:02:24.0000,  3.994127543963341E-03,  2.807061745588129E-03,  2.240056276844785E+00,  3.381121900913389E+02,  2.449946309135436E+02,  2.461534558877592E+06,  2.035366860470630E+02,  3.075895412207168E+01,  3.099403876982812E+01,  2.818318469012875E-03,  2.829575192437620E-03,  1.768722911783867E+00,
2461545.668000000, A.D. 2027-May-20 04:01:55.2000,  3.954301194405655E-03,  2.811995975277258E-03,  2.240360788335638E+00,  3.380951770510382E+02,  2.482148530834758E+02,  2.461545188377258E+06,  2.030133761287508E+02,  9.736983211832727E+01,  9.781892892760206E+01,  2.823159598650198E-03,  2.834323222023138E-03,  1.773282169208833E+00,
2461556.626000000, A.D. 2027-May-31 03:01:26.4000,  4.114103376635639E-03,  2.806496910450767E-03,  2.240739833799526E+00,  3.380777095400808E+02,  2.273483611860942E+02,  2.461557470521987E+06,  2.035613486732571E+02,  1.880879653513822E+02,  1.880219727798237E+02,  2.818090827439602E-03,  2.829684744428437E-03,  1.768508620847504E+00,
2461567.584000000, A.D. 2027-Jun-11 02:00:57.6000,  4.279722975416250E-03,  2.809723700269373E-03,  2.240968989558950E+00,  3.380605199157673E+02,  2.080436839720312E+02,  2.461567991290809E+06,  2.031600934087406E+02,  2.772547613289528E+02,  2.767679442672726E+02,  2.821800223517999E-03,  2.833876746766624E-03,  1.772001547940377E+00,
2461578.542000000, A.D. 2027-Jun-22 01:00:28.8000,  4.639340775438741E-03,  2.807683759714806E-03,  2.241431442443166E+00,  3.380454284301393E+02,  2.066175681250012E+02,  2.461578598503952E+06,  2.032713734838917E+02,  3.485143641898248E+02,  3.484079001238280E+02,  2.820770274266356E-03,  2.833856788817905E-03,  1.771031473000444E+00,
2461589.500000000, A.D. 2027-Jul-03 00:00:00.0000,  4.380510216496564E-03,  2.808833024170946E-03,  2.241725905560067E+00,  3.380284287288647E+02,  2.085238575988924E+02,  2.461589222176349E+06,  2.032258738186846E+02,  5.646095428823388E+01,  5.688061634374826E+01,  2.821191281401817E-03,  2.833549538632688E-03,  1.771427984220095E+00,
2461600.458000000, A.D. 2027-Jul-13 22:59:31.2000,  3.961988410533977E-03,  2.807941774514320E-03,  2.242212811540281E+00,  3.380130836313202E+02,  1.952545875090703E+02,  2.461599771959850E+06,  2.034508558126786E+02,  1.395754557485132E+02,  1.398687498174604E+02,  2.819111059861500E-03,  2.830280345208679E-03,  1.769469086585998E+00,
